{
  "links" : {
    "next" : "https://api.nasa.gov/neo/rest/v1/neo/browse?page=3&size=20&api_key=jqAGvNAwUIBu4fl9FSOjdm3V4F7hIglRzI6pdX9d",
    "prev" : "https://api.nasa.gov/neo/rest/v1/neo/browse?page=1&size=20&api_key=jqAGvNAwUIBu4fl9FSOjdm3V4F7hIglRzI6pdX9d",
    "self" : "https://api.nasa.gov/neo/rest/v1/neo/browse?page=2&size=20&api_key=jqAGvNAwUIBu4fl9FSOjdm3V4F7hIglRzI6pdX9d"
  },
  "page" : {
    "size" : 20,
    "total_elements" : 20750,
    "total_pages" : 1038,
    "number" : 2
  },
  "near_earth_objects" : [ {
    "links" : {
      "self" : "https://api.nasa.gov/neo/rest/v1/neo/3014781?api_key=jqAGvNAwUIBu4fl9FSOjdm3V4F7hIglRzI6pdX9d"
    },
    "neo_reference_id" : "3014781",
    "name" : "(1998 QA105)",
    "designation" : "1998 QA105",
    "nasa_jpl_url" : "http://ssd.jpl.nasa.gov/sbdb.cgi?sstr=3014781",
    "absolute_magnitude_h" : 21.5,
    "estimated_diameter" : {
      "kilometers" : {
        "estimated_diameter_min" : 0.1332155667,
        "estimated_diameter_max" : 0.2978790628
      },
      "meters" : {
        "estimated_diameter_min" : 133.2155666981,
        "estimated_diameter_max" : 297.8790627982
      },
      "miles" : {
        "estimated_diameter_min" : 0.0827762899,
        "estimated_diameter_max" : 0.1850934111
      },
      "feet" : {
        "estimated_diameter_min" : 437.0589598459,
        "estimated_diameter_max" : 977.2935443908
      }
    },
    "is_potentially_hazardous_asteroid" : false,
    "close_approach_data" : [ {
      "close_approach_date" : "1967-10-02",
      "epoch_date_close_approach" : -70995600000,
      "relative_velocity" : {
        "kilometers_per_second" : "6.7191135303",
        "kilometers_per_hour" : "24188.8087091461",
        "miles_per_hour" : "15029.9850559692"
      },
      "miss_distance" : {
        "astronomical" : "0.3277691025",
        "lunar" : "127.5021820068",
        "kilometers" : "49033560",
        "miles" : "30468042"
      },
      "orbiting_body" : "Earth"
    }, {
      "close_approach_date" : "1998-09-29",
      "epoch_date_close_approach" : 907052400000,
      "relative_velocity" : {
        "kilometers_per_second" : "5.1724752237",
        "kilometers_per_hour" : "18620.9108051965",
        "miles_per_hour" : "11570.3098278178"
      },
      "miss_distance" : {
        "astronomical" : "0.270354865",
        "lunar" : "105.1680450439",
        "kilometers" : "40444512",
        "miles" : "25131056"
      },
      "orbiting_body" : "Earth"
    } ],
    "orbital_data" : {
      "orbit_id" : "12",
      "orbit_determination_date" : "2017-04-06 09:17:44",
      "first_observation_date" : "1998-08-30",
      "last_observation_date" : "1998-10-27",
      "data_arc_in_days" : 58,
      "observations_used" : 25,
      "orbit_uncertainty" : "6",
      "minimum_orbit_intersection" : ".280091",
      "jupiter_tisserand_invariant" : "3.134",
      "epoch_osculation" : "2458600.5",
      "eccentricity" : ".532249142409624",
      "semi_major_axis" : "2.701058669306974",
      "inclination" : "8.307972603054973",
      "ascending_node_longitude" : "336.9661430376467",
      "orbital_period" : "1621.434663212466",
      "perihelion_distance" : "1.263422508970257",
      "perihelion_argument" : "39.92296404019051",
      "aphelion_distance" : "4.138694829643692",
      "perihelion_time" : "2459205.809696701995",
      "mean_anomaly" : "225.605752882462",
      "mean_motion" : ".2220255975573819",
      "equinox" : "J2000",
      "orbit_class" : {
        "orbit_class_type" : "AMO",
        "orbit_class_range" : "1.017 AU < q (perihelion) < 1.3 AU",
        "orbit_class_description" : "Near-Earth asteroid orbits similar to that of 1221 Amor"
      }
    },
    "is_sentry_object" : false
  }, {
    "links" : {
      "self" : "https://api.nasa.gov/neo/rest/v1/neo/3092193?api_key=jqAGvNAwUIBu4fl9FSOjdm3V4F7hIglRzI6pdX9d"
    },
    "neo_reference_id" : "3092193",
    "name" : "(1998 SS4)",
    "designation" : "1998 SS4",
    "nasa_jpl_url" : "http://ssd.jpl.nasa.gov/sbdb.cgi?sstr=3092193",
    "absolute_magnitude_h" : 21.8,
    "estimated_diameter" : {
      "kilometers" : {
        "estimated_diameter_min" : 0.1160259082,
        "estimated_diameter_max" : 0.2594418179
      },
      "meters" : {
        "estimated_diameter_min" : 116.0259082094,
        "estimated_diameter_max" : 259.4418179074
      },
      "miles" : {
        "estimated_diameter_min" : 0.0720951346,
        "estimated_diameter_max" : 0.1612096218
      },
      "feet" : {
        "estimated_diameter_min" : 380.6624406898,
        "estimated_diameter_max" : 851.1870938635
      }
    },
    "is_potentially_hazardous_asteroid" : false,
    "close_approach_data" : [ {
      "close_approach_date" : "1998-09-23",
      "epoch_date_close_approach" : 906534000000,
      "relative_velocity" : {
        "kilometers_per_second" : "7.6704385826",
        "kilometers_per_hour" : "27613.5788974557",
        "miles_per_hour" : "17158.0040654774"
      },
      "miss_distance" : {
        "astronomical" : "0.117664025",
        "lunar" : "45.7713050842",
        "kilometers" : "17602288",
        "miles" : "10937554"
      },
      "orbiting_body" : "Earth"
    } ],
    "orbital_data" : {
      "orbit_id" : "11",
      "orbit_determination_date" : "2017-04-06 09:17:43",
      "first_observation_date" : "1998-09-19",
      "last_observation_date" : "1998-10-13",
      "data_arc_in_days" : 24,
      "observations_used" : 38,
      "orbit_uncertainty" : "7",
      "minimum_orbit_intersection" : ".109295",
      "jupiter_tisserand_invariant" : "3.409",
      "epoch_osculation" : "2458600.5",
      "eccentricity" : ".510604077916429",
      "semi_major_axis" : "2.27456460839146",
      "inclination" : "9.592920363510917",
      "ascending_node_longitude" : "180.7317537128092",
      "orbital_period" : "1252.984916332924",
      "perihelion_distance" : "1.113162643862395",
      "perihelion_argument" : "174.6159464941185",
      "aphelion_distance" : "3.435966572920525",
      "perihelion_time" : "2458591.995885682344",
      "mean_anomaly" : "2.443350366352467",
      "mean_motion" : ".2873139136052826",
      "equinox" : "J2000",
      "orbit_class" : {
        "orbit_class_type" : "AMO",
        "orbit_class_range" : "1.017 AU < q (perihelion) < 1.3 AU",
        "orbit_class_description" : "Near-Earth asteroid orbits similar to that of 1221 Amor"
      }
    },
    "is_sentry_object" : false
  }, {
    "links" : {
      "self" : "https://api.nasa.gov/neo/rest/v1/neo/3092196?api_key=jqAGvNAwUIBu4fl9FSOjdm3V4F7hIglRzI6pdX9d"
    },
    "neo_reference_id" : "3092196",
    "name" : "(1998 UR)",
    "designation" : "1998 UR",
    "nasa_jpl_url" : "http://ssd.jpl.nasa.gov/sbdb.cgi?sstr=3092196",
    "absolute_magnitude_h" : 22.7,
    "estimated_diameter" : {
      "kilometers" : {
        "estimated_diameter_min" : 0.0766575574,
        "estimated_diameter_max" : 0.1714115092
      },
      "meters" : {
        "estimated_diameter_min" : 76.6575573531,
        "estimated_diameter_max" : 171.4115092306
      },
      "miles" : {
        "estimated_diameter_min" : 0.0476327831,
        "estimated_diameter_max" : 0.1065101409
      },
      "feet" : {
        "estimated_diameter_min" : 251.5011804664,
        "estimated_diameter_max" : 562.3737359442
      }
    },
    "is_potentially_hazardous_asteroid" : false,
    "close_approach_data" : [ {
      "close_approach_date" : "1998-10-10",
      "epoch_date_close_approach" : 908002800000,
      "relative_velocity" : {
        "kilometers_per_second" : "11.3335950842",
        "kilometers_per_hour" : "40800.9423030242",
        "miles_per_hour" : "25352.1188437875"
      },
      "miss_distance" : {
        "astronomical" : "0.105902504",
        "lunar" : "41.1960716248",
        "kilometers" : "15842789",
        "miles" : "9844252"
      },
      "orbiting_body" : "Earth"
    } ],
    "orbital_data" : {
      "orbit_id" : "14",
      "orbit_determination_date" : "2017-04-06 09:17:40",
      "first_observation_date" : "1998-10-16",
      "last_observation_date" : "1998-10-27",
      "data_arc_in_days" : 11,
      "observations_used" : 23,
      "orbit_uncertainty" : "9",
      "minimum_orbit_intersection" : ".105282",
      "jupiter_tisserand_invariant" : "4.145",
      "epoch_osculation" : "2451104.5",
      "eccentricity" : ".3795005324777705",
      "semi_major_axis" : "1.652048452945687",
      "inclination" : "17.39456326472516",
      "ascending_node_longitude" : "28.22935934638322",
      "orbital_period" : "775.5907087403651",
      "perihelion_distance" : "1.025095185373722",
      "perihelion_argument" : "311.9727436389869",
      "aphelion_distance" : "2.279001720517653",
      "perihelion_time" : "2451062.511424790284",
      "mean_anomaly" : "19.48951541728424",
      "mean_motion" : ".4641623422548151",
      "equinox" : "J2000",
      "orbit_class" : {
        "orbit_class_type" : "AMO",
        "orbit_class_range" : "1.017 AU < q (perihelion) < 1.3 AU",
        "orbit_class_description" : "Near-Earth asteroid orbits similar to that of 1221 Amor"
      }
    },
    "is_sentry_object" : false
  } ]
}